School_ID,Short_Name,Zip,Lat,Long,GeoNetwork,COMMAREA,WARD_15
400009,GLOBAL CITIZENSHIP,60632,41.80757851,-87.74009744,8,GARFIELD RIDGE,14
400010,ACE TECH HS,60609,41.79612151,-87.62584904,9,WASHINGTON PARK,3
400011,LOCKE A,60612,41.87724835,-87.70523453,5,EAST GARFIELD PARK,28
400013,ASPIRA - EARLY COLLEGE HS,60618,41.93729829,-87.72709566,4,AVONDALE,30
400017,ASPIRA - HAUGAN,60625,41.96640567,-87.72182467,1,ALBANY PARK,35
400021,CATALYST - CIRCLE ROCK,60644,41.88232222,-87.76532198,3,AUSTIN,29
400022,CHIARTS HS,60622,41.89937657,-87.69494501,5,WEST TOWN,26
400023,CICS - AVALON/SOUTH SHORE,60619,41.74317942,-87.58792764,12,AVALON PARK,8
400024,CICS - BASIL,60609,41.79404286,-87.67024266,11,NEW CITY,16
400025,CICS - BUCKTOWN,60647,41.92241463,-87.68135796,6,LOGAN SQUARE,32
400026,CICS - LOOMIS,60643,41.72024642,-87.65756106,11,WASHINGTON HEIGHTS,21
400027,CICS - IRVING PARK,60618,41.95089128,-87.71049243,1,IRVING PARK,33
400028,CICS - PRAIRIE,60628,41.68443304,-87.61688838,13,WEST PULLMAN,9
400029,CICS - WASHINGTON PARK,60637,41.7841264,-87.62126075,9,WASHINGTON PARK,20
400030,CICS - WEST BELDEN,60639,41.9216875,-87.77674854,3,BELMONT CRAGIN,36
400031,CICS - WRIGHTWOOD,60652,41.74536545,-87.6926144,10,ASHBURN,18
400032,CICS - ELLISON HS,60620,41.74838241,-87.66897964,11,AUBURN GRESHAM,17
400033,CICS - LONGWOOD,60643,41.72122143,-87.65576813,11,WASHINGTON HEIGHTS,21
400034,CICS - NORTHTOWN HS,60659,41.99024501,-87.72650426,1,NORTH PARK,39
400035,CHICAGO MATH & SCIENCE HS,60626,42.01303149,-87.67481842,2,ROGERS PARK,49
400036,CHICAGO VIRTUAL,60607,41.88055011,-87.64977248,6,NEAR WEST SIDE,25
400039,ERIE,60622,41.90677064,-87.69436445,5,WEST TOWN,1
400040,FRAZIER CHARTER,60624,41.86207686,-87.71764198,5,NORTH LAWNDALE,24
400043,HOPE INSTITUTE,60612,41.88336203,-87.66807695,6,NEAR WEST SIDE,27
400044,KIPP - ASCEND,60623,41.85836974,-87.72107065,5,NORTH LAWNDALE,24
400045,NKRUMAH,60628,41.69804049,-87.63105815,13,ROSELAND,34
400046,LEARN - BUTLER,60624,41.86727271,-87.71067948,5,NORTH LAWNDALE,24
400047,LEARN - CAMPBELL,60612,41.87786063,-87.69873872,5,EAST GARFIELD PARK,27
400048,LEARN - EXCEL,60612,41.88731992,-87.70207089,5,EAST GARFIELD PARK,27
400049,LEGACY,60623,41.85696245,-87.70850768,5,NORTH LAWNDALE,24
400050,NAMASTE,60609,41.82569976,-87.66772404,8,MCKINLEY PARK,12
400051,NOBLE - NOBLE HS,60642,41.90019052,-87.66262778,6,WEST TOWN,2
400052,NOBLE - COMER,60619,41.76525228,-87.60416375,12,GREATER GRAND CROSSING,5
400053,NOBLE - GOLDER HS,60642,41.89528219,-87.664483,6,WEST TOWN,27
400054,NOBLE - PRITZKER HS,60639,41.91521411,-87.73012671,4,HERMOSA,35
400055,NOBLE - RAUNER HS,60642,41.89242501,-87.66085887,6,WEST TOWN,1
400056,NOBLE - ROWE CLARK HS,60651,41.89536226,-87.71804677,5,HUMBOLDT PARK,27
400057,NOBLE - UIC HS,60608,41.86581741,-87.67611093,6,NEAR WEST SIDE,28
400058,NORTH LAWNDALE - CHRISTIANA HS,60623,41.85856355,-87.70898711,5,NORTH LAWNDALE,24
400059,NORTH LAWNDALE - COLLINS HS,60623,41.86414584,-87.7006806,5,NORTH LAWNDALE,24
400060,AHS - PASSAGES,60660,41.98337144,-87.67116042,2,EDGEWATER,40
400061,PERSPECTIVES - LEADERSHIP HS,60620,41.74596083,-87.65204509,11,AUBURN GRESHAM,21
400062,PERSPECTIVES - TECH HS,60620,41.74594902,-87.65065702,11,AUBURN GRESHAM,21
400064,PERSPECTIVES - JOSLIN HS,60616,41.85599911,-87.6285309,6,NEAR SOUTH SIDE,3
400066,PERSPECTIVES - MATH & SCI HS,60653,41.82778386,-87.62478772,9,DOUGLAS,3
400068,PLATO,60644,41.87276043,-87.76333693,3,AUSTIN,29
400069,POLARIS,60624,41.89255017,-87.70779647,5,HUMBOLDT PARK,27
400071,PROVIDENCE ENGLEWOOD,60636,41.77536737,-87.66399583,11,WEST ENGLEWOOD,16
400075,U OF C - DONOGHUE,60653,41.82772608,-87.60850078,9,OAKLAND,4
400076,U OF C - NKO,60653,41.81118287,-87.59878627,9,KENWOOD,4
400077,U OF C - WOODLAWN HS,60637,41.7781297,-87.59811392,9,WOODLAWN,20
400078,U OF C - WOODSON,60653,41.8135473,-87.60842562,9,GRAND BOULEVARD,3
400079,ACERO - ZIZUMBO,60632,41.81013479,-87.73049512,8,ARCHER HEIGHTS,14
400080,ACERO - TORRES,60632,41.80819981,-87.73045044,8,ARCHER HEIGHTS,14
400081,ACERO - DE LAS CASAS,60608,41.85950401,-87.66794917,7,LOWER WEST SIDE,25
400082,ACERO - FUENTES,60618,41.93747578,-87.69959365,4,AVONDALE,33
400083,ACERO - PAZ,60608,41.85003541,-87.6925509,7,SOUTH LAWNDALE,24
400084,ACERO - TAMAYO,60632,41.79993019,-87.69386164,8,GAGE PARK,14
400085,ACERO - GARCIA HS,60632,41.80917079,-87.73046685,8,ARCHER HEIGHTS,14
400086,URBAN PREP - ENGLEWOOD HS,60621,41.78149782,-87.63435669,11,ENGLEWOOD,20
400087,YOUNG WOMENS HS,60616,41.84454381,-87.6187238,9,DOUGLAS,4
400089,ACERO - MARQUEZ,60632,41.80830882,-87.6973941,8,BRIGHTON PARK,15
400091,CHICAGO TECH HS,60608,41.86330141,-87.6590948,6,NEAR WEST SIDE,25
400092,CICS - BOND,60827,41.65366345,-87.6050391,13,RIVERDALE,9
400094,EPIC HS,60617,41.74484911,-87.55022237,12,SOUTH CHICAGO,7
400096,ROWE,60642,41.90779718,-87.66407247,6,WEST TOWN,2
400097,NOBLE - BULLS HS,60612,41.87880881,-87.67819526,6,NEAR WEST SIDE,27
400098,NOBLE - MUCHIN HS,60602,41.88274026,-87.62633828,6,LOOP,42
400101,ACERO - CISNEROS,60632,41.82288374,-87.69399616,8,BRIGHTON PARK,12
400102,URBAN PREP - WEST HS,60608,41.86254002,-87.66010654,6,NEAR WEST SIDE,25
400104,INSTITUTO - HEALTH,60608,41.84596659,-87.68724016,7,LOWER WEST SIDE,25
400105,URBAN PREP - BRONZEVILLE HS,60616,41.83111753,-87.61362865,9,DOUGLAS,4
400106,NOBLE - JOHNSON HS,60621,41.7783695,-87.6351167,11,ENGLEWOOD,20
400107,LEARN - SOUTH CHICAGO,60617,41.73333313,-87.54557989,12,SOUTH CHICAGO,10
400111,LEARN - PERKINS,60620,41.74312177,-87.66572106,11,AUBURN GRESHAM,21
400112,ACERO - IDAR,60632,41.80104241,-87.70879678,8,GAGE PARK,14
400113,CICS - CHICAGOQUEST HS,60610,41.9077968,-87.6455615,4,NEAR NORTH SIDE,27
400114,ACERO - SANTIAGO,60622,41.90034364,-87.68989562,5,WEST TOWN,1
400115,CATALYST - MARIA,60629,41.77099172,-87.69307532,10,CHICAGO LAWN,17
400116,MONTESSORI ENGLEWOOD,60636,41.76739011,-87.66763901,11,WEST ENGLEWOOD,17
400117,NOBLE - HANSBERRY HS,60620,41.73444162,-87.65098673,11,AUBURN GRESHAM,21
400118,NOBLE - DRW HS,60624,41.86932808,-87.71165423,5,NORTH LAWNDALE,24
400119,LEGAL PREP HS,60624,41.88173276,-87.73377838,5,WEST GARFIELD PARK,28
400120,ACERO - CLEMENTE,60707,41.91795168,-87.78783044,3,BELMONT CRAGIN,29
400121,ACERO - DE LA CRUZ,60645,42.01647588,-87.68440568,2,WEST RIDGE,49
400123,YCCS - SCHOLASTIC ACHIEVEMENT,60644,41.88044719,-87.7425389,3,AUSTIN,28
400124,YCCS - MCKINLEY,60616,41.84133117,-87.62533077,9,DOUGLAS,3
400125,YCCS - ASPIRA PANTOJA,60641,41.9381866,-87.72713736,4,AVONDALE,30
400126,YCCS - ASSOCIATION HOUSE,60651,41.90157241,-87.70685988,5,HUMBOLDT PARK,26
400127,YCCS - AUSTIN CAREER,60651,41.89497639,-87.76022118,3,AUSTIN,37
400128,YCCS - CCA ACADEMY,60623,41.86494335,-87.72366217,5,NORTH LAWNDALE,24
400129,YCCS - HOUSTON,60637,41.77416955,-87.6158421,9,GREATER GRAND CROSSING,20
400130,YCCS - YOUTH DEVELOPMENT,60620,41.75137711,-87.64173119,11,AUBURN GRESHAM,6
400131,YCCS - CAMPOS,60622,41.9028497,-87.69600602,5,WEST TOWN,26
400133,YCCS - INNOVATIONS,60602,41.88304717,-87.62773415,6,LOOP,42
400134,YCCS - ADDAMS,60616,41.85720786,-87.64488798,7,LOWER WEST SIDE,11
400135,YCCS - LATINO YOUTH,60608,41.85466466,-87.69543001,7,SOUTH LAWNDALE,12
400136,YCCS - OLIVE HARVEY,60628,41.7129221,-87.5923332,12,PULLMAN,8
400137,LITTLE BLACK PEARL HS,60653,41.8096955,-87.59933994,9,KENWOOD,4
400139,YCCS - SULLIVAN,60617,41.74628657,-87.57849167,12,AVALON PARK,8
400141,YCCS - TRUMAN,60640,41.96529482,-87.65923929,2,UPTOWN,46
400143,YCCS - WEST TOWN,60612,41.89080312,-87.7020528,5,HUMBOLDT PARK,27
400144,YCCS - WESTSIDE HOLISTIC,60651,41.90224003,-87.74881029,3,AUSTIN,37
400145,YCCS - YOUTH CONNECTION,60616,41.83207206,-87.62678147,9,DOUGLAS,3
400146,KIPP CHICAGO - CREATE,60644,41.89181614,-87.74661384,3,AUSTIN,37
400147,CAMELOT - CHICAGO EXCEL HS,60643,41.69196931,-87.65372654,13,MORGAN PARK,34
400148,INSTITUTO - LOZANO HS,60608,41.84544602,-87.68406494,7,LOWER WEST SIDE,25
400149,ACERO - SOTO HS,60632,41.80176225,-87.71102498,8,GAGE PARK,14
400150,YCCS - CHATHAM,60619,41.73013139,-87.60697991,12,CHATHAM,8
400151,LEARN - 7,60612,41.88731749,-87.70141739,5,EAST GARFIELD PARK,27
400153,ACERO - BRIGHTON PARK,60632,41.81310945,-87.69323838,8,BRIGHTON PARK,15
400156,NOBLE - BUTLER HS,60628,41.70666686,-87.60257332,13,PULLMAN,9
400157,NOBLE - BAKER HS,60617,41.73462237,-87.55620144,12,SOUTH CHICAGO,7
400159,CHRISTOPHER HOUSE,60639,41.92218116,-87.75752153,3,BELMONT CRAGIN,36
400161,CHICAGO COLLEGIATE,60628,41.67931844,-87.61796787,13,WEST PULLMAN,9
400162,INTRINSIC HS,60641,41.93898843,-87.74112863,1,IRVING PARK,30
400163,KIPP CHICAGO - BLOOM,60621,41.79355627,-87.63996733,11,ENGLEWOOD,20
400165,LEARN - MIDDLE,60612,41.88731991,-87.70272394,5,EAST GARFIELD PARK,27
400167,HORIZON - SOUTHWEST,60609,41.79520095,-87.68396339,8,GAGE PARK,15
400169,NOBLE - ITW SPEER HS,60639,41.91726641,-87.75967517,3,BELMONT CRAGIN,37
400170,NOBLE - ACADEMY HS,60610,41.9068788,-87.64557694,4,NEAR NORTH SIDE,27
400171,FOUNDATIONS,60643,41.69467074,-87.65353525,13,MORGAN PARK,34
400173,PATHWAYS - BRIGHTON PARK HS,60632,41.80822579,-87.70264475,8,BRIGHTON PARK,14
400175,CAMELOT - EXCEL SOUTH SHORE HS,60649,41.75974864,-87.55648708,12,SOUTH SHORE,7
400176,CAMELOT - EXCEL SOUTHWEST HS,60629,41.76592892,-87.69073009,10,AUBURN GRESHAM,17
609674,CHICAGO VOCATIONAL HS,60617,41.73717393,-87.57326752,12,AVALON PARK,8
609676,DUNBAR HS,60616,41.84022557,-87.61763743,9,DOUGLAS,4
609678,JONES HS,60605,41.87306592,-87.62767532,6,LOOP,4
609679,PROSSER HS,60639,41.9200594,-87.76104832,3,BELMONT CRAGIN,36
609680,PAYTON HS,60610,41.90157517,-87.63538477,6,NEAR NORTH SIDE,27
609682,RICHARDS HS,60609,41.80288138,-87.66227785,8,NEW CITY,20
609691,NORTH-GRAND HS,60639,41.91167369,-87.73523756,5,HUMBOLDT PARK,36
609692,SIMEON HS,60620,41.74578123,-87.63541037,11,CHATHAM,21
609693,WESTINGHOUSE HS,60624,41.8899772,-87.70733231,5,HUMBOLDT PARK,28
609694,HANCOCK HS,60629,41.79146391,-87.72447046,8,WEST ELSDON,13
609695,AMUNDSEN HS,60625,41.97506726,-87.67948421,2,LINCOLN SQUARE,40
609698,BOGAN HS,60652,41.74937561,-87.72109745,10,ASHBURN,18
609704,FARRAGUT HS,60623,41.84855987,-87.70870563,7,SOUTH LAWNDALE,22
609705,FENGER HS,60628,41.68995073,-87.63757205,13,ROSELAND,34
609707,ROBESON HS,60621,41.7697138,-87.63715272,11,ENGLEWOOD,6
609708,FOREMAN HS,60641,41.93979677,-87.75416654,1,PORTAGE PARK,31
609709,GAGE PARK HS,60629,41.79101284,-87.68895394,8,GAGE PARK,15
609710,HARLAN HS,60628,41.71837235,-87.62062344,12,ROSELAND,9
609711,HARPER HS,60636,41.77512408,-87.6690893,11,WEST ENGLEWOOD,15
609712,HIRSCH HS,60619,41.75374796,-87.60172727,12,GREATER GRAND CROSSING,8
609713,HYDE PARK HS,60637,41.78225693,-87.58661501,9,WOODLAWN,5
609715,KELLY HS,60632,41.81872906,-87.69463866,8,BRIGHTON PARK,12
609716,KELVYN PARK HS,60639,41.9279184,-87.73599882,4,HERMOSA,31
609718,KENNEDY HS,60638,41.78996125,-87.78083976,10,GARFIELD RIDGE,13
609719,LAKE VIEW HS,60613,41.95476407,-87.66895269,2,LAKE VIEW,47
609720,LANE TECH HS,60618,41.94664458,-87.69101263,4,NORTH CENTER,47
609722,MANLEY HS,60612,41.87093896,-87.69989559,5,EAST GARFIELD PARK,28
609723,MARSHALL HS,60624,41.87844409,-87.70805007,5,EAST GARFIELD PARK,28
609724,MATHER HS,60659,41.98758868,-87.7024964,2,WEST RIDGE,40
609725,MORGAN PARK HS,60643,41.69203501,-87.66565755,10,MORGAN PARK,19
609726,BROOKS HS,60628,41.69276253,-87.61635261,13,ROSELAND,9
609727,PHILLIPS HS,60653,41.82387997,-87.61979635,9,DOUGLAS,3
609728,ROOSEVELT HS,60625,41.96482788,-87.71481862,1,ALBANY PARK,33
609729,SCHURZ HS,60641,41.94636454,-87.73561211,1,IRVING PARK,45
609730,SENN HS,60660,41.98902854,-87.66713619,2,EDGEWATER,48
609732,STEINMETZ HS,60634,41.93563359,-87.78351523,3,BELMONT CRAGIN,36
609733,SULLIVAN HS,60626,42.00268756,-87.66919215,2,ROGERS PARK,49
609734,TAFT HS,60631,41.98296099,-87.79154725,1,NORWOOD PARK,41
609735,TILDEN HS,60609,41.80751007,-87.64296648,8,NEW CITY,11
609737,VON STEUBEN HS,60625,41.97318505,-87.71338625,1,NORTH PARK,39
609738,LINCOLN PARK HS,60614,41.91826831,-87.64600936,4,LINCOLN PARK,43
609739,WASHINGTON HS,60617,41.68813694,-87.5375703,13,EAST SIDE,10
609740,WELLS HS,60622,41.89899471,-87.66748287,6,WEST TOWN,1
609741,HUBBARD HS,60629,41.78052639,-87.71801374,10,WEST LAWN,23
609744,NORTHSIDE LEARNING HS,60659,41.98297252,-87.72238622,1,NORTH PARK,39
609745,SOUTHSIDE HS,60636,41.75985243,-87.67594677,11,WEST ENGLEWOOD,17
609746,KENWOOD HS,60615,41.80377212,-87.59042089,9,KENWOOD,4
609748,YORK HS,60608,41.84253335,-87.69526102,7,SOUTH LAWNDALE,24
609749,NORTHSIDE PREP HS,60625,41.98131528,-87.7087078,1,NORTH PARK,40
609750,SIMPSON HS,60608,41.86436548,-87.66872223,6,NEAR WEST SIDE,28
609751,KING HS,60653,41.81367545,-87.60387386,9,KENWOOD,4
609753,CHICAGO AGRICULTURE HS,60655,41.69122074,-87.71776967,10,MOUNT GREENWOOD,19
609754,CHICAGO MILITARY HS,60653,41.83055498,-87.61921554,9,DOUGLAS,3
609755,YOUNG HS,60607,41.87860253,-87.66423334,6,NEAR WEST SIDE,27
609756,CURIE HS,60632,41.80306021,-87.72204165,8,ARCHER HEIGHTS,14
609759,CLEMENTE HS,60622,41.90262579,-87.68690615,5,WEST TOWN,1
609760,CARVER MILITARY HS,60627,41.65628995,-87.59062039,13,RIVERDALE,9
609761,CORLISS HS,60628,41.70665962,-87.60121588,13,PULLMAN,9
609762,JULIAN HS,60643,41.70585894,-87.65374921,10,WASHINGTON HEIGHTS,34
609764,JUAREZ HS,60608,41.85267014,-87.66433931,7,LOWER WEST SIDE,25
609766,VAUGHN HS,60641,41.9603638,-87.76466317,1,PORTAGE PARK,38
609768,HOPE HS,60621,41.79355347,-87.64124411,11,ENGLEWOOD,20
609769,GRAHAM HS,60616,41.84967542,-87.62531482,6,NEAR SOUTH SIDE,3
609772,ADDAMS,60617,41.6987388,-87.53297604,13,EAST SIDE,10
609773,AGASSIZ,60657,41.9341263,-87.65622867,4,LAKE VIEW,44
609777,ARMOUR,60608,41.83385391,-87.65065316,6,BRIDGEPORT,11
609779,ARMSTRONG G,60645,42.01014998,-87.68444183,2,WEST RIDGE,50
609780,MARINE LEADERSHIP AT AMES HS,60647,41.91604463,-87.72174232,4,LOGAN SQUARE,26
609782,AUDUBON,60618,41.94506223,-87.68104105,4,NORTH CENTER,47
609783,JEFFERSON HS,60612,41.86783229,-87.68041755,6,NEAR WEST SIDE,27
609786,AVALON PARK,60619,41.74824699,-87.59165381,12,AVALON PARK,8
609788,BARNARD,60643,41.70513101,-87.65807422,10,BEVERLY,19
609789,BARRY,60641,41.93251058,-87.73938835,4,HERMOSA,31
609790,BARTON,60620,41.75419385,-87.67092713,11,AUBURN GRESHAM,17
609791,BASS,60621,41.77424645,-87.65353242,11,ENGLEWOOD,16
609792,BATEMAN,60618,41.95821984,-87.70215096,1,IRVING PARK,33
609793,NICHOLSON,60621,41.78494238,-87.64745284,11,ENGLEWOOD,16
609794,EDISON,60625,41.9715061,-87.70930367,1,ALBANY PARK,33
609795,CLARK ES,60644,41.86781257,-87.77041753,3,AUSTIN,29
609796,BEAUBIEN,60630,41.97239395,-87.75756504,1,JEFFERSON PARK,45
609797,BEIDLER,60612,41.88532104,-87.70585481,5,EAST GARFIELD PARK,27
609798,BELDING,60641,41.95893849,-87.73401973,1,IRVING PARK,39
609799,BELL,60618,41.9495298,-87.68601824,4,NORTH CENTER,47
609800,BENNETT,60628,41.71043495,-87.61739046,13,ROSELAND,9
609803,BLAINE,60613,41.95078052,-87.66496784,4,LAKE VIEW,44
609804,BOONE,60645,42.00341161,-87.69746282,2,WEST RIDGE,50
609805,JOPLIN,60620,41.74933916,-87.66936565,11,AUBURN GRESHAM,17
609806,BRADWELL,60649,41.75436513,-87.55714197,12,SOUTH SHORE,7
609807,HAMPTON,60652,41.75345719,-87.70873128,10,ASHBURN,18
609808,HALEY,60628,41.68665997,-87.63363214,13,ROSELAND,34
609809,BRENTANO,60647,41.9309661,-87.6962942,4,LOGAN SQUARE,32
609810,BRIDGE,60634,41.94911439,-87.79866892,1,DUNNING,38
609811,BRIGHT,60617,41.69972622,-87.56208423,13,SOUTH DEERING,10
609812,BROWN W,60612,41.88299679,-87.67068239,6,NEAR WEST SIDE,27
609813,BROWNELL,60637,41.77162036,-87.62174597,12,GREATER GRAND CROSSING,6
609815,BOUCHET,60649,41.76084748,-87.57607486,12,SOUTH SHORE,7
609817,BUDLONG,60625,41.97575433,-87.69655603,2,LINCOLN SQUARE,40
609818,BURBANK,60639,41.91759814,-87.78269957,3,BELMONT CRAGIN,29
609819,BURKE,60615,41.79675956,-87.61614052,9,WASHINGTON PARK,3
609820,BURLEY,60657,41.93793747,-87.66985312,4,LAKE VIEW,32
609821,BURNHAM,60617,41.71440206,-87.56713059,13,SOUTH DEERING,7
609826,CASTELLANOS,60623,41.84544988,-87.71492701,7,SOUTH LAWNDALE,22
609827,BURNSIDE,60619,41.72848064,-87.60743532,12,CHATHAM,8
609828,BURR,60622,41.91235791,-87.6686606,6,WEST TOWN,32
609829,BURROUGHS,60632,41.82886791,-87.69245663,8,BRIGHTON PARK,12
609830,BRUNSON,60651,41.89766257,-87.76560566,3,AUSTIN,29
609832,BYRNE,60638,41.79503097,-87.79154448,10,GARFIELD RIDGE,23
609833,CALDWELL,60617,41.73922636,-87.58072903,12,AVALON PARK,8
609834,LITTLE VILLAGE,60623,41.84369812,-87.71731895,7,SOUTH LAWNDALE,22
609835,CAMERON,60651,41.90379212,-87.71792664,5,HUMBOLDT PARK,26
609836,CANTY,60634,41.94800703,-87.8292957,1,DUNNING,38
609837,CARNEGIE,60637,41.78336832,-87.59079501,9,WOODLAWN,20
609839,CARROLL,60652,41.74251663,-87.69601208,10,ASHBURN,18
609842,CARSON,60629,41.79327214,-87.68779954,8,GAGE PARK,15
609844,CARTER,60637,41.78982791,-87.62245275,9,WASHINGTON PARK,20
609845,CARVER G,60827,41.65370212,-87.59951563,13,RIVERDALE,9
609848,ALDRIDGE,60827,41.65740497,-87.60647385,13,RIVERDALE,9
609849,CASSELL,60655,41.68734706,-87.70321549,10,MOUNT GREENWOOD,19
609850,GREELEY,60613,41.95280951,-87.65097987,4,LAKE VIEW,46
609851,CHALMERS,60608,41.86643525,-87.69525937,5,NORTH LAWNDALE,28
609852,CHAPPELL,60625,41.9758943,-87.68326359,2,LINCOLN SQUARE,40
609853,CHASE,60647,41.91799265,-87.69456225,4,LOGAN SQUARE,1
609854,CHOPIN,60622,41.89671269,-87.68893676,5,WEST TOWN,26
609855,CHRISTOPHER,60632,41.80165863,-87.685607,8,GAGE PARK,14
609856,CLAY,60633,41.65455815,-87.5446136,13,HEGEWISCH,10
609857,CLEVELAND,60618,41.95204212,-87.70644253,1,IRVING PARK,33
609859,CLINTON,60659,41.99254136,-87.69835995,2,WEST RIDGE,40
609861,CLISSOLD,60643,41.69302601,-87.68089679,10,MORGAN PARK,19
609862,COLES,60617,41.74141281,-87.56596977,12,SOUTH CHICAGO,7
609863,COLUMBUS,60622,41.89956578,-87.68193805,5,WEST TOWN,2
609864,COOK,60620,41.74523702,-87.65977459,11,AUBURN GRESHAM,21
609865,JORDAN,60626,42.01708759,-87.67776252,2,ROGERS PARK,49
609866,COONLEY,60618,41.9555532,-87.6837653,2,NORTH CENTER,47
609867,COOPER,60608,41.85603119,-87.66722708,7,LOWER WEST SIDE,25
609869,LANGFORD,60636,41.78468086,-87.65716921,11,WEST ENGLEWOOD,16
609870,CORKERY,60623,41.84560242,-87.73119287,7,SOUTH LAWNDALE,22
609871,VICK,60655,41.68819084,-87.6856766,10,MORGAN PARK,19
609872,PEREZ,60608,41.85602872,-87.65798013,7,LOWER WEST SIDE,25
609873,CROWN,60623,41.85266349,-87.71247015,5,NORTH LAWNDALE,24
609874,DIRKSEN,60656,41.97371478,-87.84104144,1,OHARE,41
609875,DARWIN,60647,41.92332272,-87.70541291,4,LOGAN SQUARE,32
609876,DAVIS N,60632,41.82185161,-87.70020216,8,BRIGHTON PARK,12
609879,DAWES,60652,41.74507775,-87.71735342,10,ASHBURN,18
609880,DECATUR,60645,42.00928856,-87.70461859,2,WEST RIDGE,50
609883,DENEEN,60619,41.76249026,-87.62334459,12,GREATER GRAND CROSSING,6
609884,DEVER,60634,41.94255167,-87.81313153,1,DUNNING,38
609885,DEWEY,60609,41.79564568,-87.64265158,11,NEW CITY,20
609887,DIXON,60619,41.74366924,-87.60997887,12,CHATHAM,6
609891,DOOLITTLE,60616,41.83112063,-87.61227454,9,DOUGLAS,4
609893,DORE,60638,41.78095446,-87.78760442,10,CLEARING,13
609894,DRAKE,60616,41.84404331,-87.62855345,9,DOUGLAS,3
609895,TURNER-DREW,60620,41.72560922,-87.63016448,11,ROSELAND,21
609896,DRUMMOND,60622,41.9159138,-87.6744946,6,LOGAN SQUARE,32
609897,EARLE,60636,41.78122517,-87.67554666,11,WEST ENGLEWOOD,16
609898,EBERHART,60629,41.77442045,-87.70795263,10,CHICAGO LAWN,23
609899,EBINGER,60631,42.00440792,-87.81116978,1,EDISON PARK,41
609900,CURTIS,60628,41.6854184,-87.62165261,13,ROSELAND,9
609901,EDGEBROOK,60646,41.99943683,-87.76184047,1,FOREST GLEN,41
609902,METCALFE,60628,41.66944402,-87.63430552,13,WEST PULLMAN,34
609903,EDWARDS,60632,41.80554154,-87.72585618,8,ARCHER HEIGHTS,14
609904,ELLINGTON,60644,41.88552958,-87.76658938,3,AUSTIN,29
609907,ERICSON,60624,41.87574412,-87.71580443,5,EAST GARFIELD PARK,28
609908,ESMOND,60643,41.68941961,-87.66915867,10,MORGAN PARK,19
609909,EVERETT,60608,41.83155516,-87.6813103,8,MCKINLEY PARK,12
609910,FALCONER,60641,41.93578457,-87.74933063,3,BELMONT CRAGIN,31
609912,FARNSWORTH,60630,41.97979006,-87.76607166,1,JEFFERSON PARK,45
609917,FERNWOOD,60628,41.71118362,-87.64041365,13,WASHINGTON HEIGHTS,34
609918,FIELD,60626,42.00966386,-87.6699854,2,ROGERS PARK,49
609919,FISKE,60637,41.78518282,-87.6086329,9,WOODLAWN,20
609920,KANOON,60623,41.85077148,-87.70511208,7,SOUTH LAWNDALE,12
609921,TELPOCHCALLI,60623,41.84794743,-87.69600588,7,SOUTH LAWNDALE,12
609922,BELMONT-CRAGIN,60639,41.92160396,-87.75795257,3,BELMONT CRAGIN,36
609924,FORT DEARBORN,60620,41.72967267,-87.65548116,11,WASHINGTON HEIGHTS,21
609925,KELLMAN,60612,41.87016772,-87.7021629,5,EAST GARFIELD PARK,28
609926,FRANKLIN,60610,41.90659999,-87.63551281,4,NEAR NORTH SIDE,27
609927,FOSTER PARK,60620,41.73842548,-87.66809931,11,AUBURN GRESHAM,21
609928,FULLER,60653,41.8180034,-87.61178404,9,GRAND BOULEVARD,4
609929,FULTON,60609,41.79758027,-87.66843588,11,NEW CITY,16
609930,FUNSTON,60647,41.91761651,-87.71689166,4,LOGAN SQUARE,26
609933,GALE,60626,42.02109056,-87.67193898,2,ROGERS PARK,49
609935,GALLISTEL,60617,41.706801,-87.53517531,13,EAST SIDE,10
609937,GARVY,60656,41.97635166,-87.79623511,1,NORWOOD PARK,41
609938,GARY,60623,41.83706515,-87.71869664,7,SOUTH LAWNDALE,22
609939,GILLESPIE,60619,41.72533228,-87.62371944,12,ROSELAND,9
609941,RANDOLPH,60636,41.76061413,-87.67596551,11,WEST ENGLEWOOD,17
609942,GOETHE,60647,41.92283101,-87.6928997,4,LOGAN SQUARE,1
609943,OWENS,60628,41.67061754,-87.62254566,13,WEST PULLMAN,9
609944,GRISSOM,60633,41.662481,-87.55330671,13,HEGEWISCH,10
609945,GOUDY,60640,41.97581653,-87.65791249,2,UPTOWN,48
609947,GRAHAM ES,60609,41.81330373,-87.64334424,6,NEW CITY,11
609949,GRAY,60641,41.94876358,-87.7571156,1,PORTAGE PARK,45
609950,ORTIZ DE DOMINGUEZ,60623,41.83879052,-87.71719032,7,SOUTH LAWNDALE,22
609951,ARIEL,60653,41.81117346,-87.59750293,9,KENWOOD,4
609952,GREENE,60609,41.82966928,-87.67149237,8,MCKINLEY PARK,12
609954,GREGORY,60624,41.87074216,-87.71866613,5,EAST GARFIELD PARK,24
609955,GRESHAM,60620,41.73892016,-87.64502524,11,AUBURN GRESHAM,21
609956,GRIMES,60638,41.77546426,-87.75880329,10,CLEARING,13
609958,GUNSAULUS,60632,41.81300737,-87.69936419,8,BRIGHTON PARK,15
609959,HAINES,60616,41.84995832,-87.63380633,6,ARMOUR SQUARE,25
609960,HALE,60638,41.78019173,-87.77657871,10,CLEARING,13
609961,NINOS HEROES,60617,41.74375308,-87.55186172,12,SOUTH CHICAGO,7
609963,HAMILTON,60657,41.94521966,-87.67086537,4,LAKE VIEW,47
609964,HAMLINE,60609,41.80724156,-87.66117466,8,NEW CITY,20
609966,HAMMOND,60623,41.85271913,-87.6962433,7,SOUTH LAWNDALE,12
609967,FINKL,60608,41.84921491,-87.68566784,7,LOWER WEST SIDE,25
609968,MCAULIFFE,60647,41.91481634,-87.72393113,4,HERMOSA,26
609969,HARTE,60637,41.79344724,-87.5868546,9,HYDE PARK,5
609971,HARVARD,60620,41.75734054,-87.63273687,11,GREATER GRAND CROSSING,6
609972,HAUGAN,60625,41.96402871,-87.72312804,1,ALBANY PARK,35
609973,ZAPATA,60623,41.8413938,-87.73431332,7,SOUTH LAWNDALE,22
609974,HAWTHORNE,60657,41.94227549,-87.65770888,4,LAKE VIEW,44
609975,HAY,60651,41.89917136,-87.75581325,3,AUSTIN,37
609976,HAYT,60660,41.99454089,-87.66850377,2,EDGEWATER,48
609977,WOODLAWN,60637,41.77336553,-87.594392,9,WOODLAWN,5
609978,SMITH,60628,41.70755762,-87.60466041,13,PULLMAN,8
609979,HEALY,60616,41.83959486,-87.64034075,6,BRIDGEPORT,11
609981,HEARST,60638,41.808175,-87.74572606,10,GARFIELD RIDGE,22
609983,HEDGES,60609,41.80711213,-87.67332726,8,NEW CITY,15
609985,HEFFERAN,60624,41.87866465,-87.73580189,5,WEST GARFIELD PARK,28
609986,HENDERSON,60636,41.79059129,-87.67188731,11,WEST ENGLEWOOD,15
609987,HENDRICKS,60609,41.81578775,-87.63366448,9,FULLER PARK,3
609988,HENRY,60618,41.9589888,-87.71563237,1,IRVING PARK,35
609990,SOUTH LOOP,60605,41.86687451,-87.628615,6,NEAR SOUTH SIDE,3
609991,HERZL,60623,41.8620813,-87.71899385,5,NORTH LAWNDALE,24
609993,LARA,60609,41.8097703,-87.67218159,8,NEW CITY,15
609994,HIBBARD,60625,41.97033524,-87.71036161,1,ALBANY PARK,33
609995,HITCH,60646,41.9836717,-87.77912305,1,NORWOOD PARK,45
609996,HOLDEN,60608,41.83802739,-87.65379167,6,BRIDGEPORT,11
609997,HOLMES,60621,41.79378765,-87.64979536,11,ENGLEWOOD,16
610000,HOWE,60644,41.89361221,-87.75939839,3,AUSTIN,37
610002,HOYNE,60617,41.73333775,-87.5682281,12,CALUMET HEIGHTS,7
610003,CUFFE,60620,41.74245163,-87.65363345,11,AUBURN GRESHAM,21
610004,CULLEN,60628,41.70033514,-87.61124446,13,ROSELAND,9
610005,HUGHES C,60623,41.86051774,-87.73177739,5,NORTH LAWNDALE,24
610006,HURLEY,60629,41.76678528,-87.71954083,10,WEST LAWN,13
610009,GALILEO,60607,41.87125482,-87.65336555,6,NEAR WEST SIDE,25
610010,JAHN,60657,41.9392475,-87.67580972,4,NORTH CENTER,32
610011,JAMIESON,60659,41.98464078,-87.70052942,2,WEST RIDGE,40
610012,JENNER,60610,41.90205484,-87.64105556,6,NEAR NORTH SIDE,27
610013,PILSEN,60608,41.85884888,-87.66220943,7,LOWER WEST SIDE,25
610015,JUNGMAN,60608,41.85806478,-87.65230159,7,LOWER WEST SIDE,25
610016,KELLOGG,60643,41.72526344,-87.67723251,10,BEVERLY,19
610017,SAUCEDO,60623,41.84794072,-87.69731554,7,SOUTH LAWNDALE,12
610019,KERSHAW,60621,41.77645281,-87.64089203,11,ENGLEWOOD,20
610021,CASALS,60651,41.90450276,-87.71423365,5,HUMBOLDT PARK,26
610022,KILMER,60626,42.00364046,-87.66822247,2,ROGERS PARK,49
610024,CARDENAS,60623,41.84848777,-87.71601741,7,SOUTH LAWNDALE,22
610026,KINZIE,60638,41.78996463,-87.7794826,10,GARFIELD RIDGE,13
610027,KIPLING,60620,41.72362691,-87.63952072,11,WASHINGTON HEIGHTS,21
610029,LOZANO,60642,41.90888613,-87.66509327,6,WEST TOWN,2
610030,KOZMINSKI,60615,41.79800188,-87.60248145,9,HYDE PARK,5
610032,GREEN,60643,41.71929195,-87.65250014,11,WASHINGTON HEIGHTS,21
610033,LASALLE,60614,41.91389953,-87.63756486,4,LINCOLN PARK,43
610034,LAWNDALE,60623,41.86296002,-87.71295679,5,NORTH LAWNDALE,24
610036,LEWIS,60651,41.90682605,-87.75454995,3,AUSTIN,37
610037,LIBBY,60609,41.79768483,-87.65993282,11,NEW CITY,20
610038,LINCOLN,60614,41.92452482,-87.6444973,4,LINCOLN PARK,43
610039,VON LINNE,60618,41.94000928,-87.70263467,4,AVONDALE,33
610040,LLOYD,60639,41.9188141,-87.74851501,3,BELMONT CRAGIN,36
610041,LOCKE J,60634,41.93176235,-87.79560407,3,MONTCLARE,36
610043,LOVETT,60639,41.91271803,-87.78391885,3,AUSTIN,29
610044,LOWELL,60651,41.90651959,-87.710217,5,HUMBOLDT PARK,26
610046,LYON,60634,41.93419216,-87.7771742,3,BELMONT CRAGIN,30
610047,MADISON,60619,41.75954806,-87.5907124,12,SOUTH SHORE,8
610048,MANIERRE,60610,41.90824688,-87.63982651,4,NEAR NORTH SIDE,27
610051,NORTHWEST,60639,41.92061097,-87.75792051,3,BELMONT CRAGIN,36
610052,MANN,60617,41.74827413,-87.57481564,12,SOUTH CHICAGO,8
610053,MARQUETTE,60629,41.77388108,-87.6970298,10,CHICAGO LAWN,17
610054,MARSH,60617,41.71658802,-87.55248343,13,SOUTH DEERING,10
610055,FARADAY,60624,41.87971359,-87.70809202,5,EAST GARFIELD PARK,28
610056,MASON,60623,41.8568637,-87.73167243,5,NORTH LAWNDALE,24
610057,FAIRFIELD,60629,41.7809039,-87.69211506,10,CHICAGO LAWN,16
610059,MAYER,60614,41.92320352,-87.65728744,4,LINCOLN PARK,43
610060,JACKSON A,60607,41.87429964,-87.66098467,6,NEAR WEST SIDE,28
610062,MCCLELLAN,60609,41.82999286,-87.64110258,6,BRIDGEPORT,11
610063,MCCORMICK,60623,41.84226717,-87.70630009,7,SOUTH LAWNDALE,22
610065,TILL,60637,41.77542384,-87.60935721,9,WOODLAWN,20
610066,MCDADE,60619,41.73454991,-87.61921444,12,CHATHAM,9
610067,MCKAY,60629,41.76814276,-87.6917865,10,CHICAGO LAWN,17
610068,HANSON PARK,60639,41.92395526,-87.76151477,3,BELMONT CRAGIN,36
610070,MCPHERSON,60640,41.96784687,-87.67628825,2,LINCOLN SQUARE,47
610073,MITCHELL,60612,41.89208217,-87.68318459,5,WEST TOWN,26
610074,MONROE,60647,41.9299886,-87.71922375,4,LOGAN SQUARE,35
610076,MOOS,60647,41.91250548,-87.69694139,5,WEST TOWN,1
610077,MORRILL,60629,41.78431328,-87.68854926,10,CHICAGO LAWN,16
610078,INTER-AMERICAN,60613,41.9490033,-87.65157334,4,LAKE VIEW,44
610081,SHERIDAN,60616,41.84440016,-87.64133981,6,BRIDGEPORT,11
610082,MOUNT GREENWOOD,60655,41.69573386,-87.70580994,10,MOUNT GREENWOOD,19
610083,BEARD,60656,41.97012488,-87.78963033,1,NORWOOD PARK,45
610084,KELLER,60655,41.69717033,-87.69727834,10,MOUNT GREENWOOD,19
610086,MOUNT VERNON,60643,41.70195212,-87.64765249,13,WASHINGTON HEIGHTS,34
610087,BLAIR,60638,41.77655627,-87.79060442,10,CLEARING,23
610088,MOZART,60647,41.92090965,-87.72188814,4,LOGAN SQUARE,35
610089,MURPHY,60618,41.95007775,-87.71683186,1,IRVING PARK,35
610090,MURRAY,60615,41.79853549,-87.59334041,9,HYDE PARK,4
610091,BROWN R,60628,41.66487335,-87.63895773,13,WEST PULLMAN,9
610092,NASH,60644,41.89180975,-87.74793588,3,AUSTIN,37
610093,NEIL,60619,41.7384066,-87.62093346,12,CHATHAM,6
610094,NETTELHORST,60657,41.94163655,-87.64456122,4,LAKE VIEW,44
610095,NEWBERRY,60614,41.91394722,-87.64599025,4,LINCOLN PARK,43
610096,NIGHTINGALE,60632,41.79771438,-87.68913886,8,GAGE PARK,14
610097,NIXON,60639,41.91958145,-87.73142009,4,HERMOSA,35
610098,NOBEL,60651,41.90615515,-87.72995463,5,HUMBOLDT PARK,26
610099,NORWOOD PARK,60631,41.98815251,-87.80297944,1,NORWOOD PARK,41
610100,WEST PARK,60651,41.90690721,-87.7324431,5,HUMBOLDT PARK,26
610102,OGLESBY,60620,41.75467006,-87.6454695,11,AUBURN GRESHAM,17
610103,OKEEFFE,60649,41.76860231,-87.57280596,12,SOUTH SHORE,5
610104,ONAHAN,60631,41.99379035,-87.79310826,1,NORWOOD PARK,41
610105,ORIOLE PARK,60656,41.97850138,-87.81205404,1,NORWOOD PARK,41
610106,PICCOLO,60651,41.90013966,-87.7312606,5,HUMBOLDT PARK,37
610107,OTIS,60642,41.89180608,-87.66542624,6,WEST TOWN,1
610108,OTOOLE,60636,41.77457107,-87.674865,11,WEST ENGLEWOOD,16
610109,OWEN,60652,41.74284992,-87.70574909,10,ASHBURN,18
610110,WELLS ES,60653,41.82735527,-87.61977966,9,DOUGLAS,3
610111,PALMER,60630,41.97328939,-87.73921295,1,ALBANY PARK,39
610112,PARKER,60621,41.7707798,-87.63408586,11,ENGLEWOOD,6
610115,PARK MANOR,60637,41.76647654,-87.61154559,12,GREATER GRAND CROSSING,6
610116,PARKSIDE,60649,41.76855519,-87.58295438,12,SOUTH SHORE,5
610117,PASTEUR,60629,41.78689538,-87.73266646,8,WEST ELSDON,13
610120,PECK,60629,41.78789897,-87.71921626,8,WEST ELSDON,23
610121,IRVING,60612,41.87159549,-87.68361565,6,NEAR WEST SIDE,28
610122,PEIRCE,60660,41.98345579,-87.66585004,2,EDGEWATER,48
610123,PENN,60623,41.85837242,-87.72238555,5,NORTH LAWNDALE,24
610124,WASHINGTON H ES,60619,41.72853414,-87.59625662,12,BURNSIDE,8
610125,RUIZ,60608,41.84810094,-87.68074453,7,LOWER WEST SIDE,25
610126,PERSHING,60616,41.83652695,-87.61833765,9,DOUGLAS,4
610127,PETERSON,60625,41.98155714,-87.71258258,1,NORTH PARK,39
610128,GARVEY,60643,41.70660286,-87.64757717,13,WASHINGTON HEIGHTS,34
610129,PICKARD,60608,41.8529004,-87.68329074,7,LOWER WEST SIDE,25
610130,PIRIE,60619,41.74034023,-87.60789114,12,CHATHAM,6
610131,PLAMONDON,60608,41.8602589,-87.69252575,5,NORTH LAWNDALE,28
610132,POE,60628,41.70263,-87.60641917,13,PULLMAN,9
610133,WARD L,60624,41.89323561,-87.71879729,5,HUMBOLDT PARK,27
610135,PORTAGE PARK,60641,41.95698764,-87.761007,1,PORTAGE PARK,38
610136,PRESCOTT,60614,41.9288411,-87.6695275,4,LINCOLN PARK,32
610137,PRUSSING,60630,41.96561907,-87.77241417,1,PORTAGE PARK,45
610138,PULASKI,60647,41.91848628,-87.68380143,6,LOGAN SQUARE,32
610139,PULLMAN,60628,41.68881935,-87.60943097,13,PULLMAN,9
610141,RAVENSWOOD,60613,41.96074569,-87.67092242,2,LAKE VIEW,47
610142,RAY,60637,41.79234788,-87.59475207,9,HYDE PARK,5
610143,REAVIS,60615,41.80417379,-87.60492543,9,KENWOOD,4
610144,REILLY,60618,41.94109399,-87.71954054,4,AVONDALE,30
610145,REINBERG,60634,41.9430189,-87.76898262,1,PORTAGE PARK,36
610146,REVERE,60619,41.76419587,-87.60017682,12,GREATER GRAND CROSSING,5
610147,ROGERS,60645,42.01526505,-87.69718539,2,WEST RIDGE,50
610148,CHAVEZ,60609,41.80714283,-87.66603693,8,NEW CITY,20
610152,RUGGLES,60619,41.75194558,-87.61806645,12,GREATER GRAND CROSSING,6
610153,RYDER,60620,41.73537939,-87.6388427,11,AUBURN GRESHAM,21
610155,SAUGANASH,60646,41.99116925,-87.74595144,1,FOREST GLEN,39
610157,SAWYER,60632,41.7974982,-87.70500578,8,GAGE PARK,14
610158,SAYRE,60707,41.91415063,-87.79872071,3,AUSTIN,29
610159,SCAMMON,60641,41.9416776,-87.73217878,1,IRVING PARK,30
610163,STOCK,60631,42.01689164,-87.81419465,1,EDISON PARK,41
610165,SCHUBERT,60639,41.93040332,-87.76119047,3,BELMONT CRAGIN,31
610167,SEWARD,60609,41.81033324,-87.66877201,8,NEW CITY,15
610170,COLUMBIA EXPLORERS,60632,41.81106861,-87.70419859,8,BRIGHTON PARK,14
610171,MIRELES,60617,41.73171692,-87.55278794,12,SOUTH CHICAGO,10
610172,SHERMAN,60609,41.79976621,-87.65022145,11,NEW CITY,20
610173,SHERWOOD,60621,41.79080024,-87.63227938,11,ENGLEWOOD,20
610174,SHIELDS,60632,41.81590949,-87.68964724,8,BRIGHTON PARK,15
610175,SHOESMITH,60615,41.80429402,-87.59390494,9,KENWOOD,4
610176,SHOOP,60643,41.69091888,-87.65866905,13,MORGAN PARK,34
610177,SKINNER,60607,41.87910254,-87.65941898,6,NEAR WEST SIDE,27
610178,SCHMID,60628,41.71698887,-87.59693188,12,PULLMAN,8
610179,SMYSER,60634,41.95886804,-87.78197454,1,PORTAGE PARK,38
610180,SMYTH,60608,41.86535102,-87.65344503,6,NEAR WEST SIDE,25
610182,SOLOMON,60659,41.99394233,-87.72404263,1,NORTH PARK,39
610183,SPENCER,60644,41.8848764,-87.75044473,3,AUSTIN,28
610185,STEVENSON,60652,41.74710688,-87.73166568,10,ASHBURN,18
610188,DUNNE,60628,41.69649616,-87.6399736,13,ROSELAND,34
610191,STONE,60659,41.99535905,-87.68479279,2,WEST RIDGE,50
610192,STOWE,60647,41.91193808,-87.7133175,5,HUMBOLDT PARK,26
610193,NEW SULLIVAN,60617,41.74382852,-87.54292761,12,SOUTH CHICAGO,10
610194,SUMNER,60624,41.87082838,-87.73352395,5,WEST GARFIELD PARK,24
610195,SUTHERLAND,60643,41.71144507,-87.67682117,10,BEVERLY,19
610196,SWIFT,60660,41.98913906,-87.65829608,2,EDGEWATER,48
610197,TALCOTT,60622,41.89240461,-87.67372272,6,WEST TOWN,1
610198,TAYLOR,60617,41.71547038,-87.53297077,13,EAST SIDE,10
610199,COLEMON,60643,41.67750545,-87.65811084,13,WEST PULLMAN,34
610200,THORP J,60617,41.73332424,-87.54427998,12,SOUTH CHICAGO,10
610201,THORP O,60634,41.94857131,-87.77763129,1,DUNNING,38
610202,TILTON,60624,41.88410224,-87.73056638,5,WEST GARFIELD PARK,28
610203,TONTI,60629,41.78752323,-87.70817918,8,GAGE PARK,23
610206,TWAIN,60638,41.7990464,-87.7589284,10,GARFIELD RIDGE,14
610207,VANDERPOEL,60643,41.72081703,-87.66555862,10,BEVERLY,19
610208,LAVIZZO,60628,41.69626235,-87.62714769,13,ROSELAND,34
610209,VOLTA,60625,41.971634,-87.72460522,1,ALBANY PARK,39
610212,ALBANY PARK,60625,41.97150444,-87.71060879,1,ALBANY PARK,33
610213,WADSWORTH,60637,41.7734779,-87.60101811,9,WOODLAWN,5
610215,MADERO,60623,41.84095691,-87.70506426,7,SOUTH LAWNDALE,22
610216,WALSH,60608,41.85483575,-87.64808617,7,LOWER WEST SIDE,11
610217,WARD J,60616,41.84398009,-87.63535579,6,ARMOUR SQUARE,11
610218,WARREN,60617,41.72676291,-87.57535255,12,CALUMET HEIGHTS,7
610219,WASHINGTON G ES,60617,41.68813148,-87.5360153,13,EAST SIDE,10
610220,WATERS,60625,41.9643654,-87.69133251,2,LINCOLN SQUARE,47
610221,WEBSTER,60624,41.86991586,-87.72752437,5,WEST GARFIELD PARK,24
610223,WENTWORTH,60636,41.7650759,-87.65820484,11,WEST ENGLEWOOD,6
610225,WHISTLER,60643,41.68390701,-87.65538382,13,WEST PULLMAN,34
610226,SANDOVAL,60629,41.79234608,-87.71098733,8,GAGE PARK,14
610227,WHITNEY,60623,41.84008043,-87.72554564,7,SOUTH LAWNDALE,22
610228,WHITTIER,60608,41.85048089,-87.67339165,7,LOWER WEST SIDE,25
610229,PRITZKER,60622,41.90705301,-87.67776098,6,WEST TOWN,1
610230,WILDWOOD,60646,42.00749067,-87.77834486,1,FOREST GLEN,41
610231,NATIONAL TEACHERS,60616,41.85279977,-87.62930833,6,NEAR SOUTH SIDE,3
610234,YATES,60647,41.91503855,-87.70028031,5,LOGAN SQUARE,1
610235,YOUNG ES,60651,41.90679057,-87.76714285,3,AUSTIN,29
610237,BEETHOVEN,60609,41.80913476,-87.62713681,9,GRAND BOULEVARD,3
610238,BOND,60621,41.76536057,-87.65301779,11,ENGLEWOOD,6
610239,DALEY,60609,41.80234287,-87.6722064,8,NEW CITY,20
610242,BRENNEMANN,60613,41.95998416,-87.64974917,2,UPTOWN,46
610244,CLARK HS,60644,41.87288501,-87.75332487,3,AUSTIN,29
610245,DOUGLASS HS,60644,41.89036863,-87.76766846,3,AUSTIN,29
610246,BEASLEY,60609,41.79846496,-87.62569158,9,WASHINGTON PARK,3
610248,CHICAGO ACADEMY ES,60634,41.94305592,-87.7781868,1,DUNNING,36
610249,TALMAN,60632,41.79404805,-87.69026084,8,GAGE PARK,14
610250,SALAZAR,60610,41.90141653,-87.63363243,6,NEAR NORTH SIDE,27
610251,CATHER,60612,41.88294992,-87.69918701,5,EAST GARFIELD PARK,27
610252,DETT,60612,41.87986982,-87.68031497,6,NEAR WEST SIDE,27
610254,DVORAK,60623,41.85888345,-87.71574357,5,NORTH LAWNDALE,24
610256,ROBINSON,60653,41.81734933,-87.59906677,9,OAKLAND,4
610257,MORTON,60612,41.88917814,-87.70510783,5,HUMBOLDT PARK,27
610263,DULLES,60637,41.77990049,-87.61721418,9,GREATER GRAND CROSSING,20
610268,ASHE,60619,41.74018379,-87.60117441,12,CHATHAM,8
610269,MCCUTCHEON,60640,41.97094908,-87.65475845,2,UPTOWN,46
610271,JENSEN,60612,41.87381495,-87.70224105,5,EAST GARFIELD PARK,28
610274,JOHNSON,60623,41.86183619,-87.70313876,5,NORTH LAWNDALE,24
610276,MOLLISON,60653,41.81435828,-87.61661794,9,GRAND BOULEVARD,3
610279,TANNER,60619,41.76067264,-87.60679104,12,GREATER GRAND CROSSING,6
610281,POWELL,60649,41.7603318,-87.55678925,12,SOUTH SHORE,7
610282,MCNAIR,60651,41.89781907,-87.74673078,3,AUSTIN,37
610284,NEW FIELD,60626,42.00770257,-87.67316833,2,ROGERS PARK,49
610287,ASHBURN,60652,41.74235057,-87.70960968,10,ASHBURN,18
610290,MAYS,60621,41.7727275,-87.63727735,11,ENGLEWOOD,6
610291,LEE,60629,41.77530539,-87.72888429,10,WEST LAWN,13
610293,MELODY,60624,41.87879893,-87.72466123,5,WEST GARFIELD PARK,28
610295,HIGGINS,60643,41.68103137,-87.64699404,13,WEST PULLMAN,34
610298,LENART,60620,41.74718592,-87.62804036,11,CHATHAM,21
610299,KING ES,60621,41.76533498,-87.64133454,11,ENGLEWOOD,6
610300,WESTCOTT,60620,41.74886823,-87.63475052,11,CHATHAM,17
610304,PHOENIX MILITARY HS,60612,41.87911823,-87.68696022,6,NEAR WEST SIDE,27
610305,LELAND,60644,41.87358678,-87.74927555,3,AUSTIN,29
610308,RUDOLPH,60612,41.88356817,-87.66947671,6,NEAR WEST SIDE,27
610312,MCDOWELL,60619,41.73313231,-87.5895895,12,CALUMET HEIGHTS,8
610313,DE DIEGO,60622,41.90529385,-87.6857562,5,WEST TOWN,1
610315,WHITE,60643,41.67230941,-87.65053854,13,WEST PULLMAN,34
610316,EARHART,60617,41.72610746,-87.58218174,12,CALUMET HEIGHTS,8
610317,BRIGHTON PARK,60632,41.8239,-87.69207693,8,BRIGHTON PARK,12
610319,EVERGREEN,60609,41.82935562,-87.66781651,8,MCKINLEY PARK,12
610323,BOWEN HS,60617,41.73462672,-87.55755003,12,SOUTH CHICAGO,7
610325,LOGANDALE,60618,41.9339702,-87.70804088,4,AVONDALE,35
610329,OROZCO,60608,41.85775481,-87.67521046,7,LOWER WEST SIDE,25
610334,RABY HS,60624,41.88621006,-87.71542312,5,EAST GARFIELD PARK,28
610339,STAGG,60621,41.75892473,-87.64921669,11,ENGLEWOOD,17
610340,CHICAGO ACADEMY HS,60634,41.94305449,-87.77684657,1,DUNNING,36
610342,SABIN,60622,41.90681581,-87.68304994,5,WEST TOWN,1
610345,WOODSON,60653,41.8144988,-87.60841877,9,GRAND BOULEVARD,3
610347,CLAREMONT,60636,41.77751051,-87.6810612,10,CHICAGO LAWN,16
610350,BLACK,60619,41.72969236,-87.57664295,12,CALUMET HEIGHTS,8
610352,DURKIN PARK,60652,41.73884394,-87.72995529,10,ASHBURN,18
610353,CALMECA,60632,41.82437733,-87.71165364,8,BRIGHTON PARK,12
610354,NORTH RIVER,60625,41.96172106,-87.70715073,1,ALBANY PARK,33
610355,COURTENAY,60640,41.96230777,-87.66385296,2,UPTOWN,46
610357,SPRY HS,60623,41.84776169,-87.69894611,7,SOUTH LAWNDALE,12
610362,EVERS,60628,41.71566536,-87.63930547,11,WASHINGTON HEIGHTS,34
610363,DISNEY,60613,41.95681613,-87.64608274,2,UPTOWN,46
610364,DUBOIS,60827,41.65373298,-87.61432001,13,RIVERDALE,9
610366,WACKER,60643,41.7161933,-87.64804432,11,WASHINGTON HEIGHTS,34
610367,DEPRIEST,60644,41.87797883,-87.76629755,3,AUSTIN,29
610368,HUGHES L,60628,41.70534232,-87.62986866,13,ROSELAND,34
610369,JACKSON M,60620,41.73412547,-87.64676673,11,AUBURN GRESHAM,21
610380,WILLIAMS HS,60615,41.8061176,-87.62502998,9,GRAND BOULEVARD,3
610381,BRONZEVILLE HS,60615,41.80520417,-87.62500447,9,GRAND BOULEVARD,3
610383,SOCIAL JUSTICE HS,60623,41.83350728,-87.73529947,7,SOUTH LAWNDALE,22
610384,INFINITY HS,60623,41.83616882,-87.73527796,7,SOUTH LAWNDALE,22
610385,MULTICULTURAL HS,60623,41.83528187,-87.7352833,7,SOUTH LAWNDALE,22
610386,PEACE AND EDUCATION HS,60609,41.80351472,-87.66737777,8,NEW CITY,20
610389,ORR HS,60624,41.89454672,-87.72665959,5,HUMBOLDT PARK,37
610390,RICKOVER MILITARY HS,60660,41.98902071,-87.66578851,2,EDGEWATER,48
610391,LINDBLOM HS,60636,41.7820408,-87.67166185,11,WEST ENGLEWOOD,15
610392,WORLD LANGUAGE HS,60623,41.83439662,-87.73529222,7,SOUTH LAWNDALE,22
610394,UPLIFT HS,60640,41.96554746,-87.65247335,2,UPTOWN,46
610396,TARKINGTON,60629,41.76440708,-87.70644465,10,CHICAGO LAWN,17
610402,DEVRY HS,60618,41.94138764,-87.69076139,4,NORTH CENTER,47
610405,SUDER,60612,41.88321452,-87.67763611,6,NEAR WEST SIDE,27
610499,COLLINS HS,60623,41.86414857,-87.70204159,5,NORTH LAWNDALE,24
610503,FRAZIER PROSPECTIVE,60624,41.86697963,-87.72724438,5,NORTH LAWNDALE,24
610504,THOMAS,60609,41.82777491,-87.67754185,8,MCKINLEY PARK,12
610506,TEAM HS,60621,41.7814849,-87.63301879,11,ENGLEWOOD,20
610513,AIR FORCE HS,60609,41.82814532,-87.63275698,6,ARMOUR SQUARE,11
610518,AUSTIN CCA HS,60644,41.88599329,-87.76191637,3,AUSTIN,37
610520,LASALLE II,60622,41.90291446,-87.67369603,6,WEST TOWN,1
610521,DAVIS M,60636,41.77122111,-87.66652988,11,WEST ENGLEWOOD,16
610523,EDISON PARK,60631,41.99423795,-87.81377123,1,NORWOOD PARK,41
610524,ALCOTT HS,60618,41.93579456,-87.68056201,4,NORTH CENTER,32
610529,OGDEN HS,60642,41.89354764,-87.65940468,6,WEST TOWN,1
610530,SOUTH SHORE ES,60637,41.76775511,-87.5903961,12,SOUTH SHORE,5
610532,HERNANDEZ,60632,41.79347933,-87.71136992,8,GAGE PARK,14
610533,PRIETO,60639,41.92131758,-87.76578057,3,BELMONT CRAGIN,36
400178,MOVING EVEREST,60644,41.88826258,-87.75542435,3,AUSTIN,37
610534,SKINNER NORTH,60610,41.90510912,-87.64484149,4,NEAR NORTH SIDE,27
610539,CAMRAS,60634,41.93493062,-87.77012726,3,BELMONT CRAGIN,30
610541,LORCA,60618,41.94002591,-87.72478312,4,AVONDALE,30
610542,WEST RIDGE,60645,42.002959,-87.70591721,2,WEST RIDGE,50
610543,SOLORIO HS,60632,41.79520056,-87.71105882,8,GAGE PARK,14
610544,AZUELA,60629,41.77107907,-87.73992023,10,WEST LAWN,13
610547,SOUTH SHORE INTL HS,60649,41.75879166,-87.57635264,12,SOUTH SHORE,8
610548,STEM,60607,41.86857588,-87.66496913,6,NEAR WEST SIDE,28
610557,PATHWAYS - ASHBURN HS,60652,41.73523902,-87.70406007,10,ASHBURN,18
610558,GOODE HS,60652,41.7537498,-87.70734535,10,ASHBURN,18
610559,SHIELDS MIDDLE,60632,41.80649141,-87.68977977,8,BRIGHTON PARK,14
610561,CRANE MEDICAL HS,60612,41.87694744,-87.68330135,6,NEAR WEST SIDE,27
610563,BACK OF THE YARDS HS,60609,41.80841254,-87.67754137,8,NEW CITY,15
610564,DISNEY II HS,60618,41.95248767,-87.72136351,1,IRVING PARK,45
610565,CAMELOT - EXCEL ENGLEWOOD HS,60621,41.76389597,-87.64912435,11,ENGLEWOOD,6
610566,MAGIC JOHNSON - N LAWNDALE HS,60624,41.86647785,-87.70660368,5,NORTH LAWNDALE,24
610567,MAGIC JOHNSON - ROSELAND HS,60661,41.69515984,-87.64269697,13,MORGAN PARK,34
610568,PATHWAYS - AVONDALE HS,60618,41.93943321,-87.70520632,4,AVONDALE,33
610569,OMBUDSMAN - NORTHWEST HS,60631,42.01717124,-87.80668177,1,EDISON PARK,41
610570,OMBUDSMAN - SOUTH HS,60635,41.78302658,-87.68363453,10,CHICAGO LAWN,16
610571,OMBUDSMAN - WEST HS,60612,41.874673,-87.6878423,6,NEAR WEST SIDE,28
610580,MAGIC JOHNSON - HUMBOLDT PK HS,60622,41.90292503,-87.68788899,5,WEST TOWN,26
400168,GREAT LAKES,60617,41.74267138,-87.5599069,12,SOUTH CHICAGO,7
610572,CAMELOT SAFE ES,60603,41.75311714,-87.55051276,12,SOUTH SHORE,7
609774,ALCOTT ES,60614,41.92984985,-87.64641314,4,LINCOLN PARK,43
610184,SPRY ES,60623,41.84774672,-87.70018447,7,SOUTH LAWNDALE,12
610101,OGDEN ES,60610,41.89997649,-87.62929657,6,NEAR NORTH SIDE,2
610515,DISNEY II ES,60641,41.95046051,-87.73067838,1,IRVING PARK,45
610573,CAMELOT SAFE HS,60603,41.7531149,-87.55180355,12,SOUTH SHORE,7
610581,MAGIC JOHNSON - BRAINERD HS,60620,41.7314923,-87.66313973,11,WASHINGTON HEIGHTS,21
400172,ASPIRA - BUSINESS & FINANCE HS,60618,41.93572647,-87.71820414,4,AVONDALE,30
610586,SOUTHEAST,60617,41.70485859,-87.52798508,13,EAST SIDE,10
400179,NOBLE - MANSUETO HS,60632,41.80798719,-87.69705748,8,BRIGHTON PARK,15
400180,KIPP ONE,60651,41.89380504,-87.7266148,5,HUMBOLDT PARK,37
610587,DYETT ARTS HS,60615,41.80120417,-87.61223911,9,WASHINGTON PARK,4
400142,YCCS - VIRTUAL HS,60612,41.87631673,-87.6741384,6,NEAR WEST SIDE,27
610588,RICHARDSON,60629,41.78382632,-87.7254216,10,WEST LAWN,23